{"type":"FeatureCollection","features":[{"type":"Feature","id":"NP.2267","properties":{"code":"2267","name":"SUU Library","instrumentType":"Kinemetrics ETNA","source":"NSMP","network":"NP","commType":"DIG","location":"","intensity":3.6,"intensity_flag":"","pga":1.5944,"pgv":0.6877,"distance":12.41,"channels":[{"name":"HNE","amplitudes":[{"name":"pga","value":1.5944,"units":"%g","flag":"0"},{"name":"pgv","value":0.6877,"units":"cm/s","flag":"0"}]},{"name":"HNN","amplitudes":[{"name":"pga","value":1.3170,"units":"%g","flag":"0"},{"name":"pgv","value":0.3317,"units":"cm/s","flag":"0"}]}],"imagemap":{"shape":"circle","coordinates":[291,250,5]}},"geometry":{"type":"Point","coordinates":[-113.06920,37.67540]}},{"type":"Feature","id":"NP.7223","properties":{"code":"7223","name":"St. George Dixie St.","instrumentType":"Kinemetrics Etna","source":"NSMP","network":"NP","commType":"DIG","location":"","intensity":1.0,"intensity_flag":"","pga":0.0647,"pgv":0.0162,"distance":69.43,"channels":[{"name":"HNE","amplitudes":[{"name":"pga","value":0.0647,"units":"%g","flag":"0"},{"name":"pgv","value":0.0162,"units":"cm/s","flag":"0"},{"name":"psa03","value":0.0638,"units":"%g","flag":"0"},{"name":"psa10","value":0.0061,"units":"%g","flag":"0"},{"name":"psa30","value":0.0009,"units":"%g","flag":"0"}]},{"name":"HNN","amplitudes":[{"name":"pga","value":0.0489,"units":"%g","flag":"0"},{"name":"pgv","value":0.0130,"units":"cm/s","flag":"0"},{"name":"psa03","value":0.0779,"units":"%g","flag":"0"},{"name":"psa10","value":0.0066,"units":"%g","flag":"0"},{"name":"psa30","value":0.0005,"units":"%g","flag":"0"}]}],"imagemap":{"shape":"circle","coordinates":[198,385,5]}},"geometry":{"type":"Point","coordinates":[-113.56564,37.10027]}},{"type":"Feature","id":"NP.7224","properties":{"code":"7224","name":"Cedar City SUU","instrumentType":"Kinemetrics Etna","source":"NSMP","network":"NP","commType":"DIG","location":"","intensity":3.9,"intensity_flag":"","pga":2.0741,"pgv":0.6360,"distance":12.13,"channels":[{"name":"HNE","amplitudes":[{"name":"pga","value":1.6156,"units":"%g","flag":"0"},{"name":"pgv","value":0.6360,"units":"cm/s","flag":"0"},{"name":"psa03","value":2.5784,"units":"%g","flag":"0"},{"name":"psa10","value":0.4048,"units":"%g","flag":"0"},{"name":"psa30","value":0.0313,"units":"%g","flag":"0"}]},{"name":"HNN","amplitudes":[{"name":"pga","value":2.0741,"units":"%g","flag":"0"},{"name":"pgv","value":0.6108,"units":"cm/s","flag":"0"},{"name":"psa03","value":2.1215,"units":"%g","flag":"0"},{"name":"psa10","value":0.2241,"units":"%g","flag":"0"},{"name":"psa30","value":0.0180,"units":"%g","flag":"0"}]}],"imagemap":{"shape":"circle","coordinates":[290,251,5]}},"geometry":{"type":"Point","coordinates":[-113.07145,37.67250]}},{"type":"Feature","id":"UU.BHUT","properties":{"code":"BHUT","name":"Beaver High School","instrumentType":"GeoTech Smart 24-A","source":"UUSS","network":"UU","commType":"DIG","location":"","intensity":1.0,"intensity_flag":"","pga":0.0164,"pgv":0.0070,"distance":86.49,"channels":[{"name":"ENE","amplitudes":[{"name":"pga","value":0.0164,"units":"%g","flag":"0"},{"name":"pgv","value":0.0070,"units":"cm/s","flag":"0"},{"name":"psa03","value":0.0372,"units":"%g","flag":"0"},{"name":"psa10","value":0.0075,"units":"%g","flag":"0"},{"name":"psa30","value":0.0010,"units":"%g","flag":"0"}]},{"name":"ENN","amplitudes":[{"name":"pga","value":0.0131,"units":"%g","flag":"0"},{"name":"pgv","value":0.0070,"units":"cm/s","flag":"0"}]}],"imagemap":{"shape":"circle","coordinates":[371,108,5]}},"geometry":{"type":"Point","coordinates":[-112.64040,38.27680]}},{"type":"Feature","id":"UU.CCUT","properties":{"code":"CCUT","name":"Cedar City, UT","instrumentType":"Streckheisen STS-2","source":"UUSS","network":"UU","commType":"DIG","location":"","intensity":1.5,"intensity_flag":"","pga":0.1668,"pgv":0.0583,"distance":27.90,"channels":[{"name":"HHN","amplitudes":[{"name":"pga","value":0.1570,"units":"%g","flag":"0"},{"name":"pgv","value":0.0583,"units":"cm/s","flag":"0"},{"name":"psa03","value":0.2184,"units":"%g","flag":"0"},{"name":"psa10","value":0.0347,"units":"%g","flag":"0"},{"name":"psa30","value":0.0038,"units":"%g","flag":"0"}]},{"name":"HHE","amplitudes":[{"name":"pga","value":0.1668,"units":"%g","flag":"0"},{"name":"pgv","value":0.0533,"units":"cm/s","flag":"0"}]}],"imagemap":{"shape":"circle","coordinates":[236,280,5]}},"geometry":{"type":"Point","coordinates":[-113.36273,37.55058]}},{"type":"Feature","id":"UU.CVH","properties":{"code":"CVH","name":"Canyon View HS","instrumentType":"GeoTech Smart 24-A","source":"UUSS","network":"UU","commType":"DIG","location":"","intensity":4.4,"intensity_flag":"","pga":3.6789,"pgv":1.0319,"distance":16.60,"channels":[{"name":"ENN","amplitudes":[{"name":"pga","value":2.8979,"units":"%g","flag":"0"},{"name":"pgv","value":0.5975,"units":"cm/s","flag":"0"},{"name":"psa03","value":1.9112,"units":"%g","flag":"0"},{"name":"psa10","value":0.2067,"units":"%g","flag":"0"},{"name":"psa30","value":0.0187,"units":"%g","flag":"0"}]},{"name":"ENE","amplitudes":[{"name":"pga","value":3.6789,"units":"%g","flag":"0"},{"name":"pgv","value":1.0319,"units":"cm/s","flag":"0"},{"name":"psa03","value":2.7140,"units":"%g","flag":"0"},{"name":"psa10","value":0.3131,"units":"%g","flag":"0"},{"name":"psa30","value":0.0294,"units":"%g","flag":"0"}]}],"imagemap":{"shape":"circle","coordinates":[292,241,5]}},"geometry":{"type":"Point","coordinates":[-113.06410,37.71510]}},{"type":"Feature","id":"US.DUG","properties":{"code":"DUG","name":"Dugway","instrumentType":"Quanterra Q680NSN","source":"USGS","network":"US","commType":"DIG","location":"","intensity":1.0,"intensity_flag":"","pga":0.0011,"pgv":0.0016,"distance":292.63,"channels":[{"name":"BHN","amplitudes":[{"name":"pga","value":0.0010,"units":"%g","flag":"0"},{"name":"pgv","value":0.0007,"units":"cm/s","flag":"0"},{"name":"psa03","value":0.0032,"units":"%g","flag":"0"},{"name":"psa10","value":0.0010,"units":"%g","flag":"0"},{"name":"psa30","value":0.0001,"units":"%g","flag":"0"}]},{"name":"BHE","amplitudes":[{"name":"pga","value":0.0011,"units":"%g","flag":"0"},{"name":"pgv","value":0.0016,"units":"cm/s","flag":"0"},{"name":"psa03","value":0.0031,"units":"%g","flag":"0"},{"name":"psa10","value":0.0024,"units":"%g","flag":"0"},{"name":"psa30","value":0.0002,"units":"%g","flag":"0"}]}]},"geometry":{"type":"Point","coordinates":[-112.81333,40.19500]}},{"type":"Feature","id":"UU.HHS","properties":{"code":"HHS","name":"Hurricane HS","instrumentType":"Kinemetrics Etna","source":"UUSS","network":"UU","commType":"DIG","location":"","intensity":1.5,"intensity_flag":"","pga":0.1775,"pgv":0.0492,"distance":49.25,"channels":[{"name":"ENN","amplitudes":[{"name":"pga","value":0.1291,"units":"%g","flag":"0"},{"name":"pgv","value":0.0383,"units":"cm/s","flag":"0"},{"name":"psa03","value":0.3125,"units":"%g","flag":"0"},{"name":"psa10","value":0.0185,"units":"%g","flag":"0"},{"name":"psa30","value":0.0014,"units":"%g","flag":"0"}]},{"name":"ENE","amplitudes":[{"name":"pga","value":0.1775,"units":"%g","flag":"0"},{"name":"pgv","value":0.0492,"units":"cm/s","flag":"0"},{"name":"psa03","value":0.4856,"units":"%g","flag":"0"},{"name":"psa10","value":0.0163,"units":"%g","flag":"0"},{"name":"psa30","value":0.0016,"units":"%g","flag":"0"}]}],"imagemap":{"shape":"circle","coordinates":[248,368,5]}},"geometry":{"type":"Point","coordinates":[-113.29570,37.17380]}},{"type":"Feature","id":"UU.HMU","properties":{"code":"HMU","name":"Henry's Mountains","instrumentType":"Guralp CMG-3T","source":"UUSS","network":"UU","commType":"DIG","location":"","intensity":1.0,"intensity_flag":"","pga":null,"pgv":null,"distance":207.03,"channels":[{"name":"HHN","amplitudes":[{"name":"pga","value":0.0292,"units":"%g","flag":"0"},{"name":"pgv","value":0.0171,"units":"cm/s","flag":"T"},{"name":"psa03","value":0.1308,"units":"%g","flag":"0"},{"name":"psa10","value":0.0109,"units":"%g","flag":"0"},{"name":"psa30","value":0.0008,"units":"%g","flag":"0"}]},{"name":"HHE","amplitudes":[{"name":"pga","value":0.0269,"units":"%g","flag":"0"},{"name":"pgv","value":0.0119,"units":"cm/s","flag":"T"},{"name":"psa03","value":0.0901,"units":"%g","flag":"0"},{"name":"psa10","value":0.0130,"units":"%g","flag":"0"},{"name":"psa30","value":0.0005,"units":"%g","flag":"0"}]}]},"geometry":{"type":"Point","coordinates":[-110.74197,37.93803]}},{"type":"Feature","id":"UU.IAE","properties":{"code":"IAE","name":"Iron Cnty Adult Ed.","instrumentType":"Kinemetrics Etna","source":"UUSS","network":"UU","commType":"DIG","location":"","intensity":4.9,"intensity_flag":"","pga":6.1237,"pgv":0.9665,"distance":11.30,"channels":[{"name":"ENN","amplitudes":[{"name":"pga","value":4.7865,"units":"%g","flag":"0"},{"name":"pgv","value":0.6216,"units":"cm/s","flag":"0"},{"name":"psa03","value":2.5614,"units":"%g","flag":"0"},{"name":"psa10","value":0.2284,"units":"%g","flag":"0"},{"name":"psa30","value":0.0229,"units":"%g","flag":"0"}]},{"name":"ENE","amplitudes":[{"name":"pga","value":6.1237,"units":"%g","flag":"0"},{"name":"pgv","value":0.9665,"units":"cm/s","flag":"0"},{"name":"psa03","value":3.7486,"units":"%g","flag":"0"},{"name":"psa10","value":0.3709,"units":"%g","flag":"0"},{"name":"psa30","value":0.0507,"units":"%g","flag":"0"}]}],"imagemap":{"shape":"circle","coordinates":[291,253,5]}},"geometry":{"type":"Point","coordinates":[-113.06670,37.66510]}},{"type":"Feature","id":"UU.KEUT","properties":{"code":"KEUT","name":"Kanab Elementary Sch","instrumentType":"GeoTech Smart 24-A","source":"UUSS","network":"UU","commType":"DIG","location":"","intensity":1.1,"intensity_flag":"","pga":0.1202,"pgv":0.0324,"distance":73.99,"channels":[{"name":"ENN","amplitudes":[{"name":"pga","value":0.0853,"units":"%g","flag":"0"},{"name":"pgv","value":0.0318,"units":"cm/s","flag":"0"},{"name":"psa03","value":0.2026,"units":"%g","flag":"0"},{"name":"psa10","value":0.0249,"units":"%g","flag":"0"},{"name":"psa30","value":0.0017,"units":"%g","flag":"0"}]},{"name":"ENE","amplitudes":[{"name":"pga","value":0.1202,"units":"%g","flag":"0"},{"name":"pgv","value":0.0324,"units":"cm/s","flag":"0"},{"name":"psa03","value":0.1633,"units":"%g","flag":"0"},{"name":"psa10","value":0.0391,"units":"%g","flag":"0"},{"name":"psa30","value":0.0015,"units":"%g","flag":"0"}]}],"imagemap":{"shape":"circle","coordinates":[392,397,5]}},"geometry":{"type":"Point","coordinates":[-112.52930,37.05030]}},{"type":"Feature","id":"UU.LCMT","properties":{"code":"LCMT","name":"Little Creek Mountain","instrumentType":"GeoTech PA-23","source":"UUSS","network":"UU","commType":"DIG","location":"","intensity":1.3,"intensity_flag":"","pga":0.1342,"pgv":0.0364,"distance":64.50,"channels":[{"name":"ENE","amplitudes":[{"name":"pga","value":0.1342,"units":"%g","flag":"0"},{"name":"pgv","value":0.0364,"units":"cm/s","flag":"0"},{"name":"psa03","value":0.1639,"units":"%g","flag":"0"},{"name":"psa10","value":0.0093,"units":"%g","flag":"0"},{"name":"psa30","value":0.0014,"units":"%g","flag":"0"}]},{"name":"ENN","amplitudes":[{"name":"pga","value":0.1257,"units":"%g","flag":"0"},{"name":"pgv","value":0.0316,"units":"cm/s","flag":"0"},{"name":"psa03","value":0.1325,"units":"%g","flag":"0"},{"name":"psa10","value":0.0056,"units":"%g","flag":"0"},{"name":"psa30","value":0.0008,"units":"%g","flag":"0"}]}],"imagemap":{"shape":"circle","coordinates":[258,406,5]}},"geometry":{"type":"Point","coordinates":[-113.24390,37.01180]}},{"type":"Feature","id":"UU.MPU","properties":{"code":"MPU","name":"Maple Canyon","instrumentType":"Guralp CMG-40T","source":"UUSS","network":"UU","commType":"DIG","location":"","intensity":1.0,"intensity_flag":"","pga":0.0010,"pgv":0.0005,"distance":298.37,"channels":[{"name":"HHN","amplitudes":[{"name":"pga","value":0.0010,"units":"%g","flag":"0"},{"name":"pgv","value":0.0005,"units":"cm/s","flag":"0"},{"name":"psa03","value":0.0018,"units":"%g","flag":"0"},{"name":"psa10","value":0.0003,"units":"%g","flag":"0"},{"name":"psa30","value":0.0000,"units":"%g","flag":"0"}]},{"name":"HHE","amplitudes":[{"name":"pga","value":0.0006,"units":"%g","flag":"0"},{"name":"pgv","value":0.0003,"units":"cm/s","flag":"0"},{"name":"psa03","value":0.0025,"units":"%g","flag":"0"},{"name":"psa10","value":0.0002,"units":"%g","flag":"0"},{"name":"psa30","value":0.0000,"units":"%g","flag":"0"}]}]},"geometry":{"type":"Point","coordinates":[-111.63333,40.01550]}},{"type":"Feature","id":"UU.MPUT","properties":{"code":"MPUT","name":"Mt. Pierson","instrumentType":"Q330","source":"UUSS","network":"UU","commType":"DIG","location":"","intensity":1.0,"intensity_flag":"","pga":0.0229,"pgv":0.0066,"distance":92.45,"channels":[{"name":"ENN","amplitudes":[{"name":"pga","value":0.0229,"units":"%g","flag":"0"},{"name":"pgv","value":0.0066,"units":"cm/s","flag":"0"}]},{"name":"ENE","amplitudes":[{"name":"pga","value":0.0199,"units":"%g","flag":"0"},{"name":"pgv","value":0.0066,"units":"cm/s","flag":"0"}]}],"imagemap":{"shape":"circle","coordinates":[456,164,5]}},"geometry":{"type":"Point","coordinates":[-112.18430,38.04150]}},{"type":"Feature","id":"LB.MVU","properties":{"code":"MVU","name":"Marysvale, UT","instrumentType":"Quanterra Q680","source":"SAND","network":"LB","commType":"DIG","location":"","intensity":1.0,"intensity_flag":"","pga":0.0307,"pgv":0.0088,"distance":127.18,"channels":[{"name":"BHN","amplitudes":[{"name":"pga","value":0.0307,"units":"%g","flag":"0"},{"name":"pgv","value":0.0088,"units":"cm/s","flag":"0"},{"name":"psa03","value":0.0524,"units":"%g","flag":"0"},{"name":"psa10","value":0.0061,"units":"%g","flag":"0"},{"name":"psa30","value":0.0004,"units":"%g","flag":"0"}]}]},"geometry":{"type":"Point","coordinates":[-112.21233,38.50367]}},{"type":"Feature","id":"UU.NLU","properties":{"code":"NLU","name":"North Lilly Mine","instrumentType":"Kinemetrics K2","source":"UUSS","network":"UU","commType":"DIG","location":"","intensity":1.0,"intensity_flag":"","pga":0.0006,"pgv":0.0004,"distance":278.35,"channels":[{"name":"ENE","amplitudes":[{"name":"pga","value":0.0006,"units":"%g","flag":"0"},{"name":"pgv","value":0.0004,"units":"cm/s","flag":"0"},{"name":"psa03","value":0.0020,"units":"%g","flag":"0"},{"name":"psa10","value":0.0004,"units":"%g","flag":"0"},{"name":"psa30","value":0.0001,"units":"%g","flag":"0"}]},{"name":"ENN","amplitudes":[{"name":"pga","value":0.0006,"units":"%g","flag":"0"},{"name":"pgv","value":0.0004,"units":"cm/s","flag":"0"},{"name":"psa03","value":0.0020,"units":"%g","flag":"0"},{"name":"psa10","value":0.0005,"units":"%g","flag":"0"},{"name":"psa30","value":0.0000,"units":"%g","flag":"0"}]},{"name":"HHN","amplitudes":[{"name":"pga","value":0.0005,"units":"%g","flag":"0"},{"name":"pgv","value":0.0004,"units":"cm/s","flag":"0"},{"name":"psa03","value":0.0020,"units":"%g","flag":"0"},{"name":"psa10","value":0.0006,"units":"%g","flag":"0"},{"name":"psa30","value":0.0001,"units":"%g","flag":"0"}]},{"name":"HHE","amplitudes":[{"name":"pga","value":0.0005,"units":"%g","flag":"0"},{"name":"pgv","value":0.0003,"units":"cm/s","flag":"0"},{"name":"psa03","value":0.0020,"units":"%g","flag":"0"},{"name":"psa10","value":0.0005,"units":"%g","flag":"0"},{"name":"psa30","value":0.0001,"units":"%g","flag":"0"}]}]},"geometry":{"type":"Point","coordinates":[-112.07500,39.95483]}},{"type":"Feature","id":"UU.PEUT","properties":{"code":"PEUT","name":"Pahvant Elem. Sch.","instrumentType":"GeoTech Smart 24-A","source":"UUSS","network":"UU","commType":"DIG","location":"","intensity":1.0,"intensity_flag":"","pga":0.0118,"pgv":0.0046,"distance":158.29,"channels":[{"name":"ENE","amplitudes":[{"name":"pga","value":0.0118,"units":"%g","flag":"0"},{"name":"pgv","value":0.0046,"units":"cm/s","flag":"0"}]},{"name":"ENN","amplitudes":[{"name":"pga","value":0.0085,"units":"%g","flag":"0"},{"name":"pgv","value":0.0035,"units":"cm/s","flag":"0"}]}]},"geometry":{"type":"Point","coordinates":[-112.08860,38.77590]}},{"type":"Feature","id":"UU.REUT","properties":{"code":"REUT","name":"Riverside Elem.","instrumentType":"GeoTech Smart 24-A","source":"UUSS","network":"UU","commType":"DIG","location":"","intensity":1.4,"intensity_flag":"","pga":0.1597,"pgv":0.0607,"distance":67.04,"channels":[{"name":"ENE","amplitudes":[{"name":"pga","value":0.1443,"units":"%g","flag":"0"},{"name":"pgv","value":0.0607,"units":"cm/s","flag":"0"},{"name":"psa03","value":0.4926,"units":"%g","flag":"0"},{"name":"psa10","value":0.0162,"units":"%g","flag":"0"},{"name":"psa30","value":0.0018,"units":"%g","flag":"0"}]},{"name":"ENN","amplitudes":[{"name":"pga","value":0.1597,"units":"%g","flag":"0"},{"name":"pgv","value":0.0485,"units":"cm/s","flag":"0"},{"name":"psa03","value":0.4345,"units":"%g","flag":"0"},{"name":"psa10","value":0.0158,"units":"%g","flag":"0"},{"name":"psa30","value":0.0014,"units":"%g","flag":"0"}]}],"imagemap":{"shape":"circle","coordinates":[206,386,5]}},"geometry":{"type":"Point","coordinates":[-113.51930,37.09760]}},{"type":"Feature","id":"UU.SCYU","properties":{"code":"SCYU","name":"SCYU","instrumentType":"GeoTech Smart 24-A","source":"UUSS","network":"UU","commType":"DIG","location":"","intensity":4.9,"intensity_flag":"","pga":14.5230,"pgv":1.9821,"distance":5.71,"channels":[{"name":"ENE","amplitudes":[{"name":"pga","value":9.5137,"units":"%g","flag":"0"},{"name":"pgv","value":1.6146,"units":"cm/s","flag":"0"}]},{"name":"ENN","amplitudes":[{"name":"pga","value":14.5230,"units":"%g","flag":"0"},{"name":"pgv","value":1.9821,"units":"cm/s","flag":"0"}]}],"imagemap":{"shape":"circle","coordinates":[287,269,5]}},"geometry":{"type":"Point","coordinates":[-113.08750,37.59540]}},{"type":"Feature","id":"UU.SRU","properties":{"code":"SRU","name":"San Rafael Swell","instrumentType":"Kinemetrics K2","source":"UUSS","network":"UU","commType":"DIG","location":"","intensity":1.0,"intensity_flag":"","pga":0.0035,"pgv":0.0015,"distance":279.10,"channels":[{"name":"ENN","amplitudes":[{"name":"pga","value":0.0023,"units":"%g","flag":"0"},{"name":"pgv","value":0.0011,"units":"cm/s","flag":"0"},{"name":"psa03","value":0.0075,"units":"%g","flag":"0"},{"name":"psa10","value":0.0010,"units":"%g","flag":"0"},{"name":"psa30","value":0.0001,"units":"%g","flag":"0"}]},{"name":"ENE","amplitudes":[{"name":"pga","value":0.0035,"units":"%g","flag":"0"},{"name":"pgv","value":0.0015,"units":"cm/s","flag":"0"},{"name":"psa03","value":0.0137,"units":"%g","flag":"0"},{"name":"psa10","value":0.0014,"units":"%g","flag":"0"},{"name":"psa30","value":0.0001,"units":"%g","flag":"0"}]},{"name":"HHE","amplitudes":[{"name":"pga","value":0.0033,"units":"%g","flag":"0"},{"name":"pgv","value":0.0015,"units":"cm/s","flag":"0"},{"name":"psa03","value":0.0135,"units":"%g","flag":"0"},{"name":"psa10","value":0.0014,"units":"%g","flag":"0"},{"name":"psa30","value":0.0001,"units":"%g","flag":"0"}]},{"name":"HHN","amplitudes":[{"name":"pga","value":0.0024,"units":"%g","flag":"0"},{"name":"pgv","value":0.0011,"units":"cm/s","flag":"0"},{"name":"psa03","value":0.0075,"units":"%g","flag":"0"},{"name":"psa10","value":0.0010,"units":"%g","flag":"0"},{"name":"psa30","value":0.0001,"units":"%g","flag":"0"}]}]},"geometry":{"type":"Point","coordinates":[-110.52383,39.11083]}},{"type":"Feature","id":"UU.TMU","properties":{"code":"TMU","name":"Trail Mountain","instrumentType":"Kinemetrics K2","source":"UUSS","network":"UU","commType":"DIG","location":"","intensity":1.0,"intensity_flag":"","pga":0.0029,"pgv":0.0014,"distance":250.20,"channels":[{"name":"HHE","amplitudes":[{"name":"pga","value":0.0023,"units":"%g","flag":"0"},{"name":"pgv","value":0.0012,"units":"cm/s","flag":"0"},{"name":"psa03","value":0.0074,"units":"%g","flag":"0"},{"name":"psa10","value":0.0010,"units":"%g","flag":"0"},{"name":"psa30","value":0.0001,"units":"%g","flag":"0"}]},{"name":"HHN","amplitudes":[{"name":"pga","value":0.0029,"units":"%g","flag":"0"},{"name":"pgv","value":0.0014,"units":"cm/s","flag":"0"},{"name":"psa03","value":0.0099,"units":"%g","flag":"0"},{"name":"psa10","value":0.0012,"units":"%g","flag":"0"},{"name":"psa30","value":0.0001,"u